NORAD_CAT_ID,OBJECT_NAME,OBJECT_TYPE,EPOCH,MEAN_MOTION,ECCENTRICITY,INCLINATION,RA_OF_ASC_NODE,ARG_OF_PERICENTER,MEAN_ANOMALY,BSTAR,MEAN_MOTION_DOT,MEAN_MOTION_DDOT,TLE_LINE0,TLE_LINE1,TLE_LINE2,SEMIMAJOR_AXIS,PERIOD,APOGEE,PERIGEE,DECAYED
49418.0,STARLINK-3111,PAYLOAD,2024-02-16 03:37:36,15.08841951,0.0001297,53.218,7.3978,98.6354,261.4785,6.0328e-05,6.72e-06,0.0,0 STARLINK-3111,1 49418U 21104L   24047.15111543  .00000672  00000-0  60328-4 0  9990,2 49418  53.2180   7.3978 0001297  98.6354 261.4785 15.08841951126122,6917.874,95.437,540.637,538.842,0.0
49418.0,STARLINK-3111,PAYLOAD,2024-02-16 06:48:21,15.088576,0.0001542,53.2204,6.8011,111.6949,248.4207,1.7854e-05,-4e-08,0.0,0 STARLINK-3111,1 49418U 21104L   24047.28358616 -.00000004  00000-0  17854-4 0  9994,2 49418  53.2204   6.8011 0001542 111.6949 248.4207 15.08857600126144,6917.827,95.436,540.758,538.625,0.0
49418.0,STARLINK-3111,PAYLOAD,2024-02-16 14:45:18,15.08836837,0.0001615,53.2197,5.3166,82.6574,277.4602,8.5237e-06,-1.52e-06,0.0,0 STARLINK-3111,1 49418U 21104L   24047.61480041 -.00000152  00000-0  85237-5 0  9994,2 49418  53.2197   5.3166 0001615  82.6574 277.4602 15.08836837125084,6917.89,95.438,540.872,538.638,0.0
49418.0,STARLINK-3111,PAYLOAD,2024-02-16 21:06:51,15.08832135,0.0001862,53.2212,4.1269,84.2424,275.8781,5.6614e-05,6.13e-06,0.0,0 STARLINK-3111,1 49418U 21104L   24047.87976451  .00000613  00000-0  56614-4 0  9994,2 49418  53.2212   4.1269 0001862  84.2424 275.8781 15.08832135125121,6917.904,95.438,541.058,538.481,0.0
49418.0,STARLINK-3111,PAYLOAD,2024-02-17 03:28:23,15.08840762,0.0001692,53.219,2.9407,75.8628,284.2552,5.2113e-05,5.41e-06,0.0,0 STARLINK-3111,1 49418U 21104L   24048.14471947  .00000541  00000-0  52113-4 0  9995,2 49418  53.2190   2.9407 0001692  75.8628 284.2552 15.08840762125168,6917.878,95.438,540.914,538.573,0.0
49418.0,STARLINK-3111,PAYLOAD,2024-02-18 01:43:47,15.08840746,0.0001618,53.219,358.7764,83.3473,276.7703,5.4704e-05,5.83e-06,0.0,0 STARLINK-3111,1 49418U 21104L   24049.07207882  .00000583  00000-0  54704-4 0  9997,2 49418  53.2190 358.7764 0001618  83.3473 276.7703 15.08840746126411,6917.878,95.438,540.862,538.624,0.0
49418.0,STARLINK-3111,PAYLOAD,2024-02-18 06:29:56,15.08850825,0.0001606,53.2189,357.8789,112.0861,248.0302,4.3617e-05,4.06e-06,0.0,0 STARLINK-3111,1 49418U 21104L   24049.27079036  .00000406  00000-0  43617-4 0  9992,2 49418  53.2189 357.8789 0001606 112.0861 248.0302 15.08850825126443,6917.847,95.437,540.823,538.601,0.0
49418.0,STARLINK-3111,PAYLOAD,2024-02-18 20:48:25,15.08839858,0.0001861,53.2168,355.2021,113.0341,247.0847,3.6254e-05,2.89e-06,0.0,0 STARLINK-3111,1 49418U 21104L   24049.86695734  .00000289  00000-0  36254-4 0  9994,2 49418  53.2168 355.2021 0001861 113.0341 247.0847 15.08839858125421,6917.881,95.438,541.033,538.458,0.0
49418.0,STARLINK-3111,PAYLOAD,2024-02-19 03:09:57,15.08842844,0.0001495,53.2187,354.0186,90.34,269.7764,8.7169e-05,1.1e-05,0.0,0 STARLINK-3111,1 49418U 21104L   24050.13191665  .00001100  00000-0  87169-4 0  9994,2 49418  53.2187 354.0186 0001495  90.3400 269.7764 15.08842844126572,6917.872,95.437,540.771,538.702,0.0
49418.0,STARLINK-3111,PAYLOAD,2024-02-19 12:42:16,15.08839889,0.0001542,53.219,352.2351,73.9206,286.1956,3.7715e-06,-2.28e-06,0.0,0 STARLINK-3111,1 49418U 21104L   24050.52936014 -.00000228  00000-0  37715-5 0  9996,2 49418  53.2190 352.2351 0001542  73.9206 286.1956 15.08839889125529,6917.881,95.438,540.812,538.679,0.0
49418.0,STARLINK-3111,PAYLOAD,2024-02-19 20:39:13,15.08832494,0.0001624,53.2189,350.7452,95.7012,264.4165,-0.00013569,-2.446e-05,0.0,0 STARLINK-3111,1 49418U 21104L   24050.86056999 -.00002446  00000-0 -13569-3 0  9992,2 49418  53.2189 350.7452 0001624  95.7012 264.4165 15.08832494126684,6917.903,95.438,540.892,538.645,0.0
49418.0,STARLINK-3111,PAYLOAD,2024-02-20 04:36:08,15.08838774,0.000153,53.2203,349.2621,115.0407,245.0744,-0.0001236,-2.254e-05,0.0,0 STARLINK-3111,1 49418U 21104L   24051.19176574 -.00002254  00000-0 -12360-3 0  9996,2 49418  53.2203 349.2621 0001530 115.0407 245.0744 15.08838774126733,6917.884,95.438,540.808,538.691,0.0
49418.0,STARLINK-3111,PAYLOAD,2024-02-20 12:33:04,15.08841364,0.0001662,53.2213,347.7764,88.8094,271.3089,-0.0001203,-2.202e-05,0.0,0 STARLINK-3111,1 49418U 21104L   24051.52296623 -.00002202  00000-0 -12030-3 0  9998,2 49418  53.2213 347.7764 0001662  88.8094 271.3089 15.08841364125675,6917.876,95.437,540.891,538.591,0.0
49418.0,STARLINK-3111,PAYLOAD,2024-02-21 02:51:31,15.08852116,0.0001458,53.2198,345.0987,90.9937,269.1222,0.00016605,2.357e-05,0.0,0 STARLINK-3111,1 49418U 21104L   24052.11911431  .00002357  00000-0  16605-3 0  9996,2 49418  53.2198 345.0987 0001458  90.9937 269.1222 15.08852116126872,6917.843,95.437,540.717,538.7,0.0
49418.0,STARLINK-3111,PAYLOAD,2024-02-21 12:23:51,15.08836592,0.0001536,53.2191,343.3129,78.9924,281.1241,4.6798e-05,4.57e-06,0.0,0 STARLINK-3111,1 49418U 21104L   24052.51656402  .00000457  00000-0  46798-4 0  9990,2 49418  53.2191 343.3129 0001536  78.9924 281.1241 15.08836592125822,6917.891,95.438,540.818,538.693,0.0
49418.0,STARLINK-3111,PAYLOAD,2024-02-22 12:14:38,15.0884348,0.0001539,53.218,338.8528,86.6273,273.4895,0.00015681,2.209e-05,0.0,0 STARLINK-3111,1 49418U 21104L   24053.51016462  .00002209  00000-0  15681-3 0  9990,2 49418  53.2180 338.8528 0001539  86.6273 273.4895 15.08843480125977,6917.87,95.437,540.799,538.67,0.0
49418.0,STARLINK-3111,PAYLOAD,2024-02-23 04:08:29,15.08861546,0.0001643,53.218,335.876,91.9313,268.1868,0.00080948,0.00012626,0.0,0 STARLINK-3111,1 49418U 21104L   24054.17255840  .00012626  00000-0  80948-3 0  9990,2 49418  53.2180 335.8760 0001643  91.9313 268.1868 15.08861546127181,6917.815,95.436,540.816,538.543,0.0
49418.0,STARLINK-3111,PAYLOAD,2024-02-23 12:05:24,15.08850539,0.00015,53.2196,334.3916,96.214,263.9023,0.00025556,3.783e-05,0.0,0 STARLINK-3111,1 49418U 21104L   24054.50375923  .00003783  00000-0  25556-3 0  9990,2 49418  53.2196 334.3916 0001500  96.2140 263.9023 15.08850539127235,6917.848,95.437,540.751,538.675,0.0
49418.0,STARLINK-3111,PAYLOAD,2024-02-24 03:59:16,15.0884401,0.0001889,53.219,331.416,106.3951,253.7249,0.00014705,2.053e-05,0.0,0 STARLINK-3111,1 49418U 21104L   24055.16616172  .00002053  00000-0  14705-3 0  9990,2 49418  53.2190 331.4160 0001889 106.3951 253.7249 15.08844010127336,6917.868,95.437,541.04,538.426,0.0
49418.0,STARLINK-3111,PAYLOAD,2024-02-24 11:56:12,15.08834125,0.0001932,53.219,329.9276,112.5055,247.6142,3.3045e-05,2.38e-06,0.0,0 STARLINK-3111,1 49418U 21104L   24055.49736505  .00000238  00000-0  33045-4 0  9991,2 49418  53.2190 329.9276 0001932 112.5055 247.6142 15.08834125127384,6917.898,95.438,541.1,538.427,0.0
49418.0,STARLINK-3111,PAYLOAD,2024-02-25 03:50:03,15.08849718,0.0001623,53.2185,326.955,108.7769,251.34,0.00023182,3.404e-05,0.0,0 STARLINK-3111,1 49418U 21104L   24056.15976070  .00003404  00000-0  23182-3 0  9996,2 49418  53.2185 326.9550 0001623 108.7769 251.3400 15.08849718127480,6917.851,95.437,540.838,538.593,0.0
49418.0,STARLINK-3111,PAYLOAD,2024-02-25 22:54:39,15.08881927,0.0001432,53.2175,323.3896,101.85,258.2653,0.00101,0.00015841,0.0,0 STARLINK-3111,1 49418U 21104L   24056.95462576  .00015841  00000-0  10100-2 0  9998,2 49418  53.2175 323.3896 0001432 101.8500 258.2653 15.08881927126492,6917.752,95.435,540.608,538.627,0.0
49418.0,STARLINK-3111,PAYLOAD,2024-02-26 00:30:02,15.08889913,0.0001298,53.2178,323.0939,90.1717,269.9424,0.0012733,0.00020062,0.0,0 STARLINK-3111,1 49418U 21104L   24057.02086366  .00020062  00000-0  12733-2 0  9991,2 49418  53.2178 323.0939 0001298  90.1717 269.9424 15.08889913127613,6917.728,95.434,540.491,538.695,0.0
49418.0,STARLINK-3111,PAYLOAD,2024-02-26 17:59:18,15.08839218,6.41e-05,53.2161,319.8245,10.7076,349.3929,7.2693e-05,8.69e-06,0.0,0 STARLINK-3111,1 49418U 21104L   24057.74951393  .00000869  00000-0  72693-4 0  9997,2 49418  53.2161 319.8245 0000641  10.7076 349.3929 15.08839218127723,6917.883,95.438,540.191,539.304,0.0
49418.0,STARLINK-3111,PAYLOAD,2024-02-26 22:45:27,15.08821917,0.0001408,53.2177,318.9308,113.862,246.252,-0.00034958,-5.844e-05,0.0,0 STARLINK-3111,1 49418U 21104L   24057.94823522 -.00005844  00000-0 -34958-3 0  9992,2 49418  53.2177 318.9308 0001408 113.8620 246.2520 15.08821917126641,6917.936,95.439,540.775,538.827,0.0
49418.0,STARLINK-3111,PAYLOAD,2024-02-27 09:53:10,15.08822901,0.0001265,53.2167,316.8477,116.9386,243.1736,0.0009855,0.00015424,0.0,0 STARLINK-3111,1 49418U 21104L   24058.41192609  .00015424  00000-0  98550-3 0  9991,2 49418  53.2167 316.8477 0001265 116.9386 243.1736 15.08822901127828,6917.933,95.439,540.673,538.923,0.0
49418.0,STARLINK-3111,PAYLOAD,2024-02-27 22:36:16,15.08830882,0.0001465,53.2169,314.4695,124.0014,236.1117,0.00083475,0.00013019,0.0,0 STARLINK-3111,1 49418U 21104L   24058.94185211  .00013019  00000-0  83475-3 0  9998,2 49418  53.2169 314.4695 0001465 124.0014 236.1117 15.08830882126793,6917.908,95.438,540.787,538.76,0.0
49418.0,STARLINK-3111,PAYLOAD,2024-02-28 09:43:58,15.08836603,0.0001153,53.2158,312.3864,115.6353,244.4759,0.00048939,7.509e-05,0.0,0 STARLINK-3111,1 49418U 21104L   24059.40553323  .00007509  00000-0  48939-3 0  9996,2 49418  53.2158 312.3864 0001153 115.6353 244.4759 15.08836603127974,6917.891,95.438,540.553,538.958,0.0
49418.0,STARLINK-3111,PAYLOAD,2024-02-28 22:27:03,15.08831194,0.0001398,53.2168,310.0089,120.0962,240.0169,0.00023685,3.483e-05,0.0,0 STARLINK-3111,1 49418U 21104L   24059.93545771  .00003483  00000-0  23685-3 0  9990,2 49418  53.2168 310.0089 0001398 120.0962 240.0169 15.08831194126949,6917.907,95.438,540.739,538.805,0.0
49418.0,STARLINK-3111,PAYLOAD,2024-02-29 01:37:49,15.08833959,0.0001356,53.217,309.414,117.2537,242.8593,0.00030086,4.503e-05,0.0,0 STARLINK-3111,1 49418U 21104L   24060.06793751  .00004503  00000-0  30086-3 0  9996,2 49418  53.2170 309.4140 0001356 117.2537 242.8593 15.08833959128070,6917.899,95.438,540.702,538.826,0.0
